[{"OBJECT_NAME":"GSAT0101 (GALILEO-PFM)","OBJECT_ID":"2011-060A","EPOCH":"2026-03-29T01:44:58.615296","MEAN_MOTION":1.70475671,"ECCENTRICITY":0.00040876,"INCLINATION":57.0192,"RA_OF_ASC_NODE":343.9362,"ARG_OF_PERICENTER":14.3377,"MEAN_ANOMALY":345.7094,"EPHEMERIS_TYPE":0,"CLASSIFICATION_TYPE":"U","NORAD_CAT_ID":37846,"ELEMENT_SET_NO":999,"REV_AT_EPOCH":8975,"BSTAR":0,"MEAN_MOTION_DOT":-9.9e-7,"MEAN_MOTION_DDOT":0},{"OBJECT_NAME":"GSAT0102 (GALILEO-FM2)","OBJECT_ID":"2011-060B","EPOCH":"2026-03-29T06:53:02.874048","MEAN_MOTION":1.70475561,"ECCENTRICITY":0.00051862,"INCLINATION":57.0196,"RA_OF_ASC_NODE":343.9307,"ARG_OF_PERICENTER":19.7969,"MEAN_ANOMALY":157.074,"EPHEMERIS_TYPE":0,"CLASSIFICATION_TYPE":"U","NORAD_CAT_ID":37847,"ELEMENT_SET_NO":999,"REV_AT_EPOCH":8976,"BSTAR":0,"MEAN_MOTION_DOT":-9.9e-7,"MEAN_MOTION_DDOT":0},{"OBJECT_NAME":"GSAT0103 (GALILEO-FM3)","OBJECT_ID":"2012-055A","EPOCH":"2026-03-29T16:47:52.467648","MEAN_MOTION":1.70473377,"ECCENTRICITY":0.00058654,"INCLINATION":55.7559,"RA_OF_ASC_NODE":103.7249,"ARG_OF_PERICENTER":290.8335,"MEAN_ANOMALY":69.1577,"EPHEMERIS_TYPE":0,"CLASSIFICATION_TYPE":"U","NORAD_CAT_ID":38857,"ELEMENT_SET_NO":999,"REV_AT_EPOCH":8365,"BSTAR":0,"MEAN_MOTION_DOT":4.4e-7,"MEAN_MOTION_DDOT":0},{"OBJECT_NAME":"GSAT0201 (GALILEO 5)","OBJECT_ID":"2014-050A","EPOCH":"2026-03-29T15:31:43.881024","MEAN_MOTION":1.85519989,"ECCENTRICITY":0.1661829,"INCLINATION":48.9626,"RA_OF_ASC_NODE":276.691,"ARG_OF_PERICENTER":176.2929,"MEAN_ANOMALY":185.1058,"EPHEMERIS_TYPE":0,"CLASSIFICATION_TYPE":"U","NORAD_CAT_ID":40128,"ELEMENT_SET_NO":999,"REV_AT_EPOCH":7684,"BSTAR":0,"MEAN_MOTION_DOT":-3.3e-7,"MEAN_MOTION_DDOT":0},{"OBJECT_NAME":"GSAT0202 (GALILEO 6)","OBJECT_ID":"2014-050B","EPOCH":"2026-03-29T21:40:06.798144","MEAN_MOTION":1.85520679,"ECCENTRICITY":0.1662861,"INCLINATION":48.98,"RA_OF_ASC_NODE":275.7652,"ARG_OF_PERICENTER":177.0373,"MEAN_ANOMALY":184.0793,"EPHEMERIS_TYPE":0,"CLASSIFICATION_TYPE":"U","NORAD_CAT_ID":40129,"ELEMENT_SET_NO":999,"REV_AT_EPOCH":7901,"BSTAR":0,"MEAN_MOTION_DOT":-3.5e-7,"MEAN_MOTION_DDOT":0},{"OBJECT_NAME":"GSAT0203 (GALILEO 7)","OBJECT_ID":"2015-017A","EPOCH":"2026-03-27T16:15:59.650272","MEAN_MOTION":1.70475469,"ECCENTRICITY":0.0003036,"INCLINATION":56.8123,"RA_OF_ASC_NODE":343.8202,"ARG_OF_PERICENTER":318.8222,"MEAN_ANOMALY":41.1887,"EPHEMERIS_TYPE":0,"CLASSIFICATION_TYPE":"U","NORAD_CAT_ID":40544,"ELEMENT_SET_NO":999,"REV_AT_EPOCH":6781,"BSTAR":0,"MEAN_MOTION_DOT":-9.7e-7,"MEAN_MOTION_DDOT":0},{"OBJECT_NAME":"GSAT0204 (GALILEO 8)","OBJECT_ID":"2015-017B","EPOCH":"2026-03-31T10:52:08.488128","MEAN_MOTION":1.7047557,"ECCENTRICITY":0.00033073,"INCLINATION":56.8177,"RA_OF_ASC_NODE":343.7349,"ARG_OF_PERICENTER":290.1581,"MEAN_ANOMALY":69.8477,"EPHEMERIS_TYPE":0,"CLASSIFICATION_TYPE":"U","NORAD_CAT_ID":40545,"ELEMENT_SET_NO":999,"REV_AT_EPOCH":3092,"BSTAR":0,"MEAN_MOTION_DOT":-9.9e-7,"MEAN_MOTION_DDOT":0},{"OBJECT_NAME":"GSAT0205 (GALILEO 9)","OBJECT_ID":"2015-045A","EPOCH":"2026-03-29T18:04:40.437984","MEAN_MOTION":1.67410692,"ECCENTRICITY":0.00039858,"INCLINATION":54.9725,"RA_OF_ASC_NODE":223.8882,"ARG_OF_PERICENTER":271.0608,"MEAN_ANOMALY":88.8305,"EPHEMERIS_TYPE":0,"CLASSIFICATION_TYPE":"U","NORAD_CAT_ID":40889,"ELEMENT_SET_NO":999,"REV_AT_EPOCH":6563,"BSTAR":0,"MEAN_MOTION_DOT":-2.9e-7,"MEAN_MOTION_DDOT":0},{"OBJECT_NAME":"GSAT0206 (GALILEO 10)","OBJECT_ID":"2015-045B","EPOCH":"2026-03-31T10:35:49.174368","MEAN_MOTION":1.70473851,"ECCENTRICITY":0.00029174,"INCLINATION":54.9707,"RA_OF_ASC_NODE":223.7491,"ARG_OF_PERICENTER":47.7837,"MEAN_ANOMALY":312.1782,"EPHEMERIS_TYPE":0,"CLASSIFICATION_TYPE":"U","NORAD_CAT_ID":40890,"ELEMENT_SET_NO":999,"REV_AT_EPOCH":6571,"BSTAR":0,"MEAN_MOTION_DOT":-2.8e-7,"MEAN_MOTION_DDOT":0},{"OBJECT_NAME":"GSAT0209 (GALILEO 12)","OBJECT_ID":"2015-079A","EPOCH":"2026-03-30T10:28:32.911392","MEAN_MOTION":1.70474349,"ECCENTRICITY":0.00054294,"INCLINATION":55.7773,"RA_OF_ASC_NODE":103.4201,"ARG_OF_PERICENTER":325.1139,"MEAN_ANOMALY":34.903,"EPHEMERIS_TYPE":0,"CLASSIFICATION_TYPE":"U","NORAD_CAT_ID":41174,"ELEMENT_SET_NO":999,"REV_AT_EPOCH":6343,"BSTAR":0,"MEAN_MOTION_DOT":4.3e-7,"MEAN_MOTION_DDOT":0},{"OBJECT_NAME":"GSAT0208 (GALILEO 11)","OBJECT_ID":"2015-079B","EPOCH":"2026-03-28T21:31:39.477216","MEAN_MOTION":1.70474176,"ECCENTRICITY":0.00048129,"INCLINATION":55.7739,"RA_OF_ASC_NODE":103.4591,"ARG_OF_PERICENTER":326.0397,"MEAN_ANOMALY":33.9829,"EPHEMERIS_TYPE":0,"CLASSIFICATION_TYPE":"U","NORAD_CAT_ID":41175,"ELEMENT_SET_NO":999,"REV_AT_EPOCH":6382,"BSTAR":0,"MEAN_MOTION_DOT":4.3e-7,"MEAN_MOTION_DDOT":0},{"OBJECT_NAME":"GSAT0211 (GALILEO 14)","OBJECT_ID":"2016-030A","EPOCH":"2026-03-31T08:48:54.265536","MEAN_MOTION":1.70474005,"ECCENTRICITY":0.00029593,"INCLINATION":55.1209,"RA_OF_ASC_NODE":223.8331,"ARG_OF_PERICENTER":16.4503,"MEAN_ANOMALY":343.4963,"EPHEMERIS_TYPE":0,"CLASSIFICATION_TYPE":"U","NORAD_CAT_ID":41549,"ELEMENT_SET_NO":999,"REV_AT_EPOCH":6134,"BSTAR":0,"MEAN_MOTION_DOT":-2.8e-7,"MEAN_MOTION_DDOT":0},{"OBJECT_NAME":"GSAT0210 (GALILEO 13)","OBJECT_ID":"2016-030B","EPOCH":"2026-03-31T00:54:41.543712","MEAN_MOTION":1.70474024,"ECCENTRICITY":0.00019293,"INCLINATION":55.1204,"RA_OF_ASC_NODE":223.8403,"ARG_OF_PERICENTER":213.2791,"MEAN_ANOMALY":146.6457,"EPHEMERIS_TYPE":0,"CLASSIFICATION_TYPE":"U","NORAD_CAT_ID":41550,"ELEMENT_SET_NO":999,"REV_AT_EPOCH":6133,"BSTAR":0,"MEAN_MOTION_DOT":-2.9e-7,"MEAN_MOTION_DDOT":0},{"OBJECT_NAME":"GSAT0207 (GALILEO 15)","OBJECT_ID":"2016-069A","EPOCH":"2026-03-31T21:40:11.558784","MEAN_MOTION":1.70474231,"ECCENTRICITY":0.000576,"INCLINATION":55.4488,"RA_OF_ASC_NODE":103.2228,"ARG_OF_PERICENTER":312.9649,"MEAN_ANOMALY":47.0336,"EPHEMERIS_TYPE":0,"CLASSIFICATION_TYPE":"U","NORAD_CAT_ID":41859,"ELEMENT_SET_NO":999,"REV_AT_EPOCH":5808,"BSTAR":0,"MEAN_MOTION_DOT":3.8e-7,"MEAN_MOTION_DDOT":0},{"OBJECT_NAME":"GSAT0212 (GALILEO 16)","OBJECT_ID":"2016-069B","EPOCH":"2026-03-31T04:04:35.126400","MEAN_MOTION":1.70474452,"ECCENTRICITY":0.00043394,"INCLINATION":55.4456,"RA_OF_ASC_NODE":103.2382,"ARG_OF_PERICENTER":336.5122,"MEAN_ANOMALY":23.5181,"EPHEMERIS_TYPE":0,"CLASSIFICATION_TYPE":"U","NORAD_CAT_ID":41860,"ELEMENT_SET_NO":999,"REV_AT_EPOCH":5832,"BSTAR":0,"MEAN_MOTION_DOT":4.0e-7,"MEAN_MOTION_DDOT":0},{"OBJECT_NAME":"GSAT0213 (GALILEO 17)","OBJECT_ID":"2016-069C","EPOCH":"2026-03-29T04:34:53.766048","MEAN_MOTION":1.70475393,"ECCENTRICITY":0.00056724,"INCLINATION":55.4467,"RA_OF_ASC_NODE":103.3008,"ARG_OF_PERICENTER":296.7743,"MEAN_ANOMALY":63.2211,"EPHEMERIS_TYPE":0,"CLASSIFICATION_TYPE":"U","NORAD_CAT_ID":41861,"ELEMENT_SET_NO":999,"REV_AT_EPOCH":5815,"BSTAR":0,"MEAN_MOTION_DOT":4.2e-7,"MEAN_MOTION_DDOT":0},{"OBJECT_NAME":"GSAT0214 (GALILEO 18)","OBJECT_ID":"2016-069D","EPOCH":"2026-04-01T06:28:39.760896","MEAN_MOTION":1.70474552,"ECCENTRICITY":0.0004811,"INCLINATION":55.4469,"RA_OF_ASC_NODE":103.2083,"ARG_OF_PERICENTER":302.3517,"MEAN_ANOMALY":57.6467,"EPHEMERIS_TYPE":0,"CLASSIFICATION_TYPE":"U","NORAD_CAT_ID":41862,"ELEMENT_SET_NO":999,"REV_AT_EPOCH":5833,"BSTAR":0,"MEAN_MOTION_DOT":3.6e-7,"MEAN_MOTION_DDOT":0}]
